CCSDS_OMM_VERS,COMMENT,CREATION_DATE,ORIGINATOR,OBJECT_NAME,OBJECT_ID,CENTER_NAME,REF_FRAME,TIME_SYSTEM,MEAN_ELEMENT_THEORY,EPOCH,MEAN_MOTION,ECCENTRICITY,INCLINATION,RA_OF_ASC_NODE,ARG_OF_PERICENTER,MEAN_ANOMALY,EPHEMERIS_TYPE,CLASSIFICATION_TYPE,NORAD_CAT_ID,ELEMENT_SET_NO,REV_AT_EPOCH,BSTAR,MEAN_MOTION_DOT,MEAN_MOTION_DDOT,SEMIMAJOR_AXIS,PERIOD,APOAPSIS,PERIAPSIS,OBJECT_TYPE,RCS_SIZE,COUNTRY_CODE,LAUNCH_DATE,SITE,DECAY_DATE,FILE,GP_ID,TLE_LINE0,TLE_LINE1,TLE_LINE2
"2.0","GENERATED VIA SPACE-TRACK.ORG API","2020-01-19T14:20:16","18 SPCS","ORBCOMM FM 30","1999-065A","EARTH","TEME","UTC","SGP4","2020-01-19T10:59:41.206848","14.32838108","0.00082010","45.0341","32.3942","252.2262","107.7690","0","U","25980","999","5137","0.00001474600000","-0.00000100","0.0000000000000","7160.396","100.499","788.134","776.389","PAYLOAD","MEDIUM","ORB","1999-12-04","AFETR","","2686374","146965659","0 ORBCOMM FM 30","1 25980U 99065A   20019.45811582 -.00000100  00000-0  14746-4 0  9997","2 25980  45.0341  32.3942 0008201 252.2262 107.7690 14.32838108 51372"
"2.0","GENERATED VIA SPACE-TRACK.ORG API","2020-01-19T20:57:00","18 SPCS","CZ-4 DEB","1999-057SK","EARTH","TEME","UTC","SGP4","2020-01-19T05:33:36.255168","14.46680693","0.01154110","98.7076","29.5854","278.8854","140.6013","0","U","35331","999","31768","0.00011792000000","0.00000409","0.0000000000000","7114.647","99.538","818.623","654.401","DEBRIS","SMALL","PRC","1999-10-14","TSC","","2686498","146980985","0 CZ-4 DEB","1 35331U 99057SK  20019.23166962 +.00000409 +00000-0 +11792-3 0  9998","2 35331 098.7076 029.5854 0115411 278.8854 140.6013 14.46680693317689"
"2.0","GENERATED VIA SPACE-TRACK.ORG API","2020-01-19T14:20:16","18 SPCS","CZ-4 DEB","1999-057SK","EARTH","TEME","UTC","SGP4","2020-01-19T05:33:36.255168","14.46680693","0.01154110","98.7076","29.5854","278.8854","140.6013","0","U","35331","999","89545","0.00011792000000","0.00000409","0.0000000000000","7114.647","99.538","818.623","654.401","DEBRIS","SMALL","PRC","1999-10-14","TSC","","2686347","146964985","0 CZ-4 DEB","1 35331U 99057SK  20019.23166962  .00000409  00000-0  11792-3 0  9998","2 35331  98.7076  29.5854 0115411 278.8854 140.6013 14.46680693895455"
"2.0","GENERATED VIA SPACE-TRACK.ORG API","2020-01-19T20:57:00","18 SPCS","ORBCOMM FM 30","1999-065A","EARTH","TEME","UTC","SGP4","2020-01-19T04:18:04.482720","14.32838027","0.00082030","45.0341","33.7047","250.9123","109.0835","0","U","25980","999","5080","0.00001136600000","-0.00000109","0.0000000000000","7160.397","100.499","788.135","776.388","PAYLOAD","MEDIUM","ORB","1999-12-04","AFETR","","2686498","146975747","0 ORBCOMM FM 30","1 25980U 99065A   20019.17921855 -.00000109 +00000-0 +11366-4 0  9995","2 25980 045.0341 033.7047 0008203 250.9123 109.0835 14.32838027050809"
"2.0","GENERATED VIA SPACE-TRACK.ORG API","2020-01-18T17:54:46","18 SPCS","ORBCOMM FM 30","1999-065A","EARTH","TEME","UTC","SGP4","2020-01-18T13:14:26.858400","14.32837959","0.00081800","45.0340","36.6535","248.0685","111.9292","0","U","25980","999","5071","0.00001220800000","-0.00000107","0.0000000000000","7160.397","100.499","788.119","776.405","PAYLOAD","MEDIUM","ORB","1999-12-04","AFETR","","2685968","146944181","0 ORBCOMM FM 30","1 25980U 99065A   20018.55169975 -.00000107 +00000-0 +12208-4 0  9997","2 25980 045.0340 036.6535 0008180 248.0685 111.9292 14.32837959050719"
"2.0","GENERATED VIA SPACE-TRACK.ORG API","2020-01-18T06:30:16","18 SPCS","ORBCOMM FM 30","1999-065A","EARTH","TEME","UTC","SGP4","2020-01-18T03:12:01.768320","14.32837939","0.00081800","45.0340","38.6192","246.0788","113.9202","0","U","25980","999","5118","0.00001386300000","-0.00000103","0.0000000000000","7160.397","100.499","788.119","776.405","PAYLOAD","MEDIUM","ORB","1999-12-04","AFETR","","2685897","146935044","0 ORBCOMM FM 30","1 25980U 99065A   20018.13335380 -.00000103  00000-0  13863-4 0  9990","2 25980  45.0340  38.6192 0008180 246.0788 113.9202 14.32837939 51185"
"2.0","GENERATED VIA SPACE-TRACK.ORG API","2020-01-17T23:44:06","18 SPCS","ORBCOMM FM 30","1999-065A","EARTH","TEME","UTC","SGP4","2020-01-17T12:08:24.148320","14.32837889","0.00081550","45.0340","41.5681","243.2195","116.7818","0","U","25980","999","5056","0.00001764500000","-0.00000092","0.0000000000000","7160.397","100.499","788.101","776.423","PAYLOAD","MEDIUM","ORB","1999-12-04","AFETR","","2685838","146921363","0 ORBCOMM FM 30","1 25980U 99065A   20017.50583505 -.00000092 +00000-0 +17645-4 0  9993","2 25980 045.0340 041.5681 0008155 243.2195 116.7818 14.32837889050563"
"2.0","GENERATED VIA SPACE-TRACK.ORG API","2020-01-17T17:14:20","18 SPCS","ORBCOMM FM 30","1999-065A","EARTH","TEME","UTC","SGP4","2020-01-17T05:26:47.423328","14.32837882","0.00081520","45.0340","42.8785","241.9498","118.0525","0","U","25980","999","5052","0.00001979700000","-0.00000086","0.0000000000000","7160.397","100.499","788.099","776.425","PAYLOAD","MEDIUM","ORB","1999-12-04","AFETR","","2685637","146897927","0 ORBCOMM FM 30","1 25980U 99065A   20017.22693777 -.00000086 +00000-0 +19797-4 0  9998","2 25980 045.0340 042.8785 0008152 241.9498 118.0525 14.32837882050529"
"2.0","GENERATED VIA SPACE-TRACK.ORG API","2020-01-16T22:20:15","18 SPCS","CZ-4 DEB","1999-057SK","EARTH","TEME","UTC","SGP4","2020-01-16T19:45:24.177600","14.46678469","0.01154450","98.7075","27.1100","286.1932","197.1017","0","U","35331","999","89511","0.00011614000000","0.00000402","0.0000000000000","7114.654","99.538","818.654","654.384","DEBRIS","SMALL","PRC","1999-10-14","TSC","","2685136","146860611","0 CZ-4 DEB","1 35331U 99057SK  20016.82319650  .00000402  00000-0  11614-3 0  9990","2 35331  98.7075  27.1100 0115445 286.1932 197.1017 14.46678469895110"
"2.0","GENERATED VIA SPACE-TRACK.ORG API","2020-01-17T01:56:47","18 SPCS","ORBCOMM FM 30","1999-065A","EARTH","TEME","UTC","SGP4","2020-01-16T12:42:45.626400","14.32837846","0.00081250","45.0339","46.1550","238.7278","121.2774","0","U","25980","999","5042","0.00002576300000","-0.00000070","0.0000000000000","7160.397","100.499","788.080","776.444","PAYLOAD","MEDIUM","ORB","1999-12-04","AFETR","","2685238","146869596","0 ORBCOMM FM 30","1 25980U 99065A   20016.52969475 -.00000070 +00000-0 +25763-4 0  9994","2 25980 045.0339 046.1550 0008125 238.7278 121.2774 14.32837846050425"
"2.0","GENERATED VIA SPACE-TRACK.ORG API","2020-01-16T18:20:16","18 SPCS","ORBCOMM FM 30","1999-065A","EARTH","TEME","UTC","SGP4","2020-01-16T12:42:45.626400","14.32837846","0.00081250","45.0339","46.1550","238.7278","121.2774","0","U","25980","999","5095","0.00002576300000","-0.00000070","0.0000000000000","7160.397","100.499","788.080","776.444","PAYLOAD","MEDIUM","ORB","1999-12-04","AFETR","","2685034","146838290","0 ORBCOMM FM 30","1 25980U 99065A   20016.52969475 -.00000070  00000-0  25763-4 0  9994","2 25980  45.0339  46.1550 0008125 238.7278 121.2774 14.32837846 50953"
"2.0","GENERATED VIA SPACE-TRACK.ORG API","2020-01-16T21:27:20","18 SPCS","ORBCOMM FM 30","1999-065A","EARTH","TEME","UTC","SGP4","2020-01-16T00:59:56.363712","14.32837870","0.00081080","45.0340","48.4484","236.5406","123.4666","0","U","25980","999","5035","0.00003289900000","-0.00000050","0.0000000000000","7160.397","100.499","788.068","776.456","PAYLOAD","MEDIUM","ORB","1999-12-04","AFETR","","2685134","146848060","0 ORBCOMM FM 30","1 25980U 99065A   20016.04162458 -.00000050 +00000-0 +32899-4 0  9993","2 25980 045.0340 048.4484 0008108 236.5406 123.4666 14.32837870050351"
"2.0","GENERATED VIA SPACE-TRACK.ORG API","2020-01-15T14:30:15","18 SPCS","ORBCOMM FM 30","1999-065A","EARTH","TEME","UTC","SGP4","2020-01-15T11:36:42.933600","14.32837803","0.00080830","45.0339","51.0696","233.9243","126.0855","0","U","25980","999","5080","0.00003569500000","-0.00000042","0.0000000000000","7160.397","100.499","788.050","776.475","PAYLOAD","MEDIUM","ORB","1999-12-04","AFETR","","2684371","146805572","0 ORBCOMM FM 30","1 25980U 99065A   20015.48383025 -.00000042  00000-0  35695-4 0  9993","2 25980  45.0339  51.0696 0008083 233.9243 126.0855 14.32837803 50801"
"2.0","GENERATED VIA SPACE-TRACK.ORG API","2020-01-15T21:44:10","18 SPCS","CZ-4 DEB","1999-057SK","EARTH","TEME","UTC","SGP4","2020-01-15T05:17:52.229760","14.46677031","0.01154630","98.7074","25.4628","291.0582","131.4190","0","U","35331","999","31710","0.00012088000000","0.00000421","0.0000000000000","7114.659","99.538","818.672","654.376","DEBRIS","SMALL","PRC","1999-10-14","TSC","","2684543","146821141","0 CZ-4 DEB","1 35331U 99057SK  20015.22074340 +.00000421 +00000-0 +12088-3 0  9994","2 35331 098.7074 025.4628 0115463 291.0582 131.4190 14.46677031317106"
"2.0","GENERATED VIA SPACE-TRACK.ORG API","2020-01-14T22:30:15","18 SPCS","CZ-4 DEB","1999-057SK","EARTH","TEME","UTC","SGP4","2020-01-14T19:37:32.177856","14.46676728","0.01154590","98.7073","25.0485","292.2792","192.5202","0","U","35331","999","89482","0.00012685000000","0.00000444","0.0000000000000","7114.660","99.538","818.670","654.380","DEBRIS","SMALL","PRC","1999-10-14","TSC","","2684005","146779037","0 CZ-4 DEB","1 35331U 99057SK  20014.81773354  .00000444  00000-0  12685-3 0  9997","2 35331  98.7073  25.0485 0115459 292.2792 192.5202 14.46676728894826"
"2.0","GENERATED VIA SPACE-TRACK.ORG API","2020-01-15T04:33:10","18 SPCS","ORBCOMM FM 30","1999-065A","EARTH","TEME","UTC","SGP4","2020-01-14T18:52:41.134944","14.32837812","0.00080540","45.0340","54.3459","230.6896","129.3237","0","U","25980","999","5017","0.00004228600000","-0.00000024","0.0000000000000","7160.397","100.499","788.029","776.495","PAYLOAD","MEDIUM","ORB","1999-12-04","AFETR","","2684153","146788846","0 ORBCOMM FM 30","1 25980U 99065A   20014.78658721 -.00000024 +00000-0 +42286-4 0  9997","2 25980 045.0340 054.3459 0008054 230.6896 129.3237 14.32837812050172"
